{"type": "FeatureCollection", "features": [ {"type": "Feature", "properties": {"norad_id": 33867, "name": "IRIDIUM 33 DEB", "group": "iridium-33-debris", "lat": 81.88782337607807, "lon": 145.3702354804313, "alt_km": 367.22952265395907, "timestamp": "2025-12-09T07:41:33.595426+00:00", "meta": {"OBJECT_NAME": "IRIDIUM 33 DEB", "OBJECT_ID": "1997-051AL", "EPOCH": "2025-12-08T12:48:58.471776", "MEAN_MOTION": 15.60555774, "ECCENTRICITY": 0.0012895, "INCLINATION": 86.363, "RA_OF_ASC_NODE": 352.2785, "ARG_OF_PERICENTER": 90.3716, "MEAN_ANOMALY": 269.9027, "EPHEMERIS_TYPE": 0, "CLASSIFICATION_TYPE": "U", "NORAD_CAT_ID": 33867, "ELEMENT_SET_NO": 999, "REV_AT_EPOCH": 89445, "BSTAR": 0.007562, "MEAN_MOTION_DOT": 0.00677686, "MEAN_MOTION_DDOT": 0}, "tle": {"line1": "1 33867U 97051AL  25342.53401009  .00677686  00000+0  75620-2 0  9998", "line2": "2 33867  86.3630 352.2785 0012895  90.3716 269.9027 15.60555774894458"}}, "geometry": {"type": "Point", "coordinates": [145.3702354804313, 81.88782337607807]}}, {"type": "Feature", "properties": {"norad_id": 33870, "name": "IRIDIUM 33 DEB", "group": "iridium-33-debris", "lat": -0.6496606891739537, "lon": -120.23248646022819, "alt_km": 727.6689949848333, "timestamp": "2025-12-09T07:41:33.595438+00:00", "meta": {"OBJECT_NAME": "IRIDIUM 33 DEB", "OBJECT_ID": "1997-051AP", "EPOCH": "2025-12-08T23:22:35.143968", "MEAN_MOTION": 14.45818414, "ECCENTRICITY": 0.00210587, "INCLINATION": 86.3747, "RA_OF_ASC_NODE": 59.8748, "ARG_OF_PERICENTER": 190.5386, "MEAN_ANOMALY": 347.6141, "EPHEMERIS_TYPE": 0, "CLASSIFICATION_TYPE": "U", "NORAD_CAT_ID": 33870, "ELEMENT_SET_NO": 999, "REV_AT_EPOCH": 88082, "BSTAR": 0.0010488792, "MEAN_MOTION_DOT": 3.75e-05, "MEAN_MOTION_DDOT": 0}, "tle": {"line1": "1 33870U 97051AP  25342.97401787  .00003750  00000+0  10489-2 0  9990", "line2": "2 33870  86.3747  59.8748 0021058 190.5386 347.6141 14.45818414880829"}}, "geometry": {"type": "Point", "coordinates": [-120.23248646022819, -0.6496606891739537]}}, {"type": "Feature", "properties": {"norad_id": 33881, "name": "IRIDIUM 33 DEB", "group": "iridium-33-debris", "lat": -81.07918430826817, "lon": 84.49259502783023, "alt_km": 713.6882539051694, "timestamp": "2025-12-09T07:41:33.595449+00:00", "meta": {"OBJECT_NAME": "IRIDIUM 33 DEB", "OBJECT_ID": "1997-051BA", "EPOCH": "2025-12-08T21:05:51.876960", "MEAN_MOTION": 14.5645843, "ECCENTRICITY": 0.00614279, "INCLINATION": 86.3871, "RA_OF_ASC_NODE": 108.42, "ARG_OF_PERICENTER": 187.1593, "MEAN_ANOMALY": 297.143, "EPHEMERIS_TYPE": 0, "CLASSIFICATION_TYPE": "U", "NORAD_CAT_ID": 33881, "ELEMENT_SET_NO": 999, "REV_AT_EPOCH": 87444, "BSTAR": 0.0024669743, "MEAN_MOTION_DOT": 0.00011273, "MEAN_MOTION_DDOT": 0}, "tle": {"line1": "1 33881U 97051BA  25342.87907265  .00011273  00000+0  24670-2 0  9999", "line2": "2 33881  86.3871 108.4200 0061427 187.1593 297.1430 14.56458430874440"}}, "geometry": {"type": "Point", "coordinates": [84.49259502783023, -81.07918430826817]}}, {"type": "Feature", "properties": {"norad_id": 33884, "name": "IRIDIUM 33 DEB", "group": "iridium-33-debris", "lat": -32.19177752927796, "lon": 9.070646505902737, "alt_km": 636.9698401295036, "timestamp": "2025-12-09T07:41:33.595459+00:00", "meta": {"OBJECT_NAME": "IRIDIUM 33 DEB", "OBJECT_ID": "1997-051BD", "EPOCH": "2025-12-08T14:31:15.449088", "MEAN_MOTION": 14.77305834, "ECCENTRICITY": 0.0010135, "INCLINATION": 86.3691, "RA_OF_ASC_NODE": 11.6845, "ARG_OF_PERICENTER": 339.4756, "MEAN_ANOMALY": 145.6855, "EPHEMERIS_TYPE": 0, "CLASSIFICATION_TYPE": "U", "NORAD_CAT_ID": 33884, "ELEMENT_SET_NO": 999, "REV_AT_EPOCH": 88786, "BSTAR": 0.0017784, "MEAN_MOTION_DOT": 0.00012665, "MEAN_MOTION_DDOT": 0}, "tle": {"line1": "1 33884U 97051BD  25342.60503992  .00012665  00000+0  17784-2 0  9996", "line2": "2 33884  86.3691  11.6845 0010135 339.4756 145.6855 14.77305834887866"}}, "geometry": {"type": "Point", "coordinates": [9.070646505902737, -32.19177752927796]}}, {"type": "Feature", "properties": {"norad_id": 33886, "name": "IRIDIUM 33 DEB", "group": "iridium-33-debris", "lat": 41.414511312127566, "lon": 71.86623938876194, "alt_km": 775.5802302650372, "timestamp": "2025-12-09T07:41:33.595470+00:00", "meta": {"OBJECT_NAME": "IRIDIUM 33 DEB", "OBJECT_ID": "1997-051BF", "EPOCH": "2025-12-08T23:56:35.389248", "MEAN_MOTION": 14.36044498, "ECCENTRICITY": 0.00121176, "INCLINATION": 86.383, "RA_OF_ASC_NODE": 68.8037, "ARG_OF_PERICENTER": 256.117, "MEAN_ANOMALY": 277.1673, "EPHEMERIS_TYPE": 0, "CLASSIFICATION_TYPE": "U", "NORAD_CAT_ID": 33886, "ELEMENT_SET_NO": 999, "REV_AT_EPOCH": 87998, "BSTAR": 0.00031398742, "MEAN_MOTION_DOT": 9.33e-06, "MEAN_MOTION_DDOT": 0}, "tle": {"line1": "1 33886U 97051BF  25342.99763182  .00000933  00000+0  31399-3 0  9993", "line2": "2 33886  86.3830  68.8037 0012117 256.1170 277.1673 14.36044498879981"}}, "geometry": {"type": "Point", "coordinates": [71.86623938876194, 41.414511312127566]}}, {"type": "Feature", "properties": {"norad_id": 33887, "name": "IRIDIUM 33 DEB", "group": "iridium-33-debris", "lat": -36.57058462116132, "lon": 2.118105789567173, "alt_km": 773.6097529335912, "timestamp": "2025-12-09T07:41:33.595481+00:00", "meta": {"OBJECT_NAME": "IRIDIUM 33 DEB", "OBJECT_ID": "1997-051BG", "EPOCH": "2025-12-08T12:25:25.149216", "MEAN_MOTION": 14.37215851, "ECCENTRICITY": 0.00041571, "INCLINATION": 86.3048, "RA_OF_ASC_NODE": 5.2119, "ARG_OF_PERICENTER": 246.101, "MEAN_ANOMALY": 245.8633, "EPHEMERIS_TYPE": 0, "CLASSIFICATION_TYPE": "U", "NORAD_CAT_ID": 33887, "ELEMENT_SET_NO": 999, "REV_AT_EPOCH": 88104, "BSTAR": 0.00027289302, "MEAN_MOTION_DOT": 8.32e-06, "MEAN_MOTION_DDOT": 0}, "tle": {"line1": "1 33887U 97051BG  25342.51765219  .00000832  00000+0  27289-3 0  9996", "line2": "2 33887  86.3048   5.2119 0004157 246.1010 245.8633 14.37215851881048"}}, "geometry": {"type": "Point", "coordinates": [2.118105789567173, -36.57058462116132]}}, {"type": "Feature", "properties": {"norad_id": 33953, "name": "IRIDIUM 33 DEB", "group": "iridium-33-debris", "lat": -43.36214938696121, "lon": 51.83962723775175, "alt_km": 727.2304222676503, "timestamp": "2025-12-09T07:41:33.595492+00:00", "meta": {"OBJECT_NAME": "IRIDIUM 33 DEB", "OBJECT_ID": "1997-051BN", "EPOCH": "2025-12-08T15:57:49.131936", "MEAN_MOTION": 14.55261918, "ECCENTRICITY": 0.0018478, "INCLINATION": 86.3841, "RA_OF_ASC_NODE": 55.5477, "ARG_OF_PERICENTER": 115.1859, "MEAN_ANOMALY": 10.2465, "EPHEMERIS_TYPE": 0, "CLASSIFICATION_TYPE": "U", "NORAD_CAT_ID": 33953, "ELEMENT_SET_NO": 999, "REV_AT_EPOCH": 88244, "BSTAR": 0.0018443, "MEAN_MOTION_DOT": 8.026e-05, "MEAN_MOTION_DDOT": 0}, "tle": {"line1": "1 33953U 97051BN  25342.66515199  .00008026  00000+0  18443-2 0  9990", "line2": "2 33953  86.3841  55.5477 0018478 115.1859  10.2465 14.55261918882442"}}, "geometry": {"type": "Point", "coordinates": [51.83962723775175, -43.36214938696121]}}, {"type": "Feature", "properties": {"norad_id": 33960, "name": "IRIDIUM 33 DEB", "group": "iridium-33-debris", "lat": 64.32672490295278, "lon": 103.29165344279617, "alt_km": 604.3801425073916, "timestamp": "2025-12-09T07:41:33.595503+00:00", "meta": {"OBJECT_NAME": "IRIDIUM 33 DEB", "OBJECT_ID": "1997-051BV", "EPOCH": "2025-12-08T21:44:18.324960", "MEAN_MOTION": 14.8486698, "ECCENTRICITY": 0.00073075, "INCLINATION": 86.2537, "RA_OF_ASC_NODE": 291.3214, "ARG_OF_PERICENTER": 67.9979, "MEAN_ANOMALY": 351.6449, "EPHEMERIS_TYPE": 0, "CLASSIFICATION_TYPE": "U", "NORAD_CAT_ID": 33960, "ELEMENT_SET_NO": 999, "REV_AT_EPOCH": 88810, "BSTAR": 0.0037227683, "MEAN_MOTION_DOT": 0.00031788, "MEAN_MOTION_DDOT": 0}, "tle": {"line1": "1 33960U 97051BV  25342.90576765  .00031788  00000+0  37228-2 0  9994", "line2": "2 33960  86.2537 291.3214 0007307  67.9979 351.6449 14.84866980888101"}}, "geometry": {"type": "Point", "coordinates": [103.29165344279617, 64.32672490295278]}}, {"type": "Feature", "properties": {"norad_id": 33966, "name": "IRIDIUM 33 DEB", "group": "iridium-33-debris", "lat": 26.91905243829565, "lon": -134.3411108074942, "alt_km": 722.7261209684984, "timestamp": "2025-12-09T07:41:33.595517+00:00", "meta": {"OBJECT_NAME": "IRIDIUM 33 DEB", "OBJECT_ID": "1997-051CB", "EPOCH": "2025-12-08T16:37:01.548192", "MEAN_MOTION": 14.49569326, "ECCENTRICITY": 0.00069456, "INCLINATION": 86.3923, "RA_OF_ASC_NODE": 47.7641, "ARG_OF_PERICENTER": 202.0511, "MEAN_ANOMALY": 275.0616, "EPHEMERIS_TYPE": 0, "CLASSIFICATION_TYPE": "U", "NORAD_CAT_ID": 33966, "ELEMENT_SET_NO": 999, "REV_AT_EPOCH": 88383, "BSTAR": 0.00096318773, "MEAN_MOTION_DOT": 3.715e-05, "MEAN_MOTION_DDOT": 0}, "tle": {"line1": "1 33966U 97051CB  25342.69237903  .00003715  00000+0  96319-3 0  9990", "line2": "2 33966  86.3923  47.7641 0006945 202.0511 275.0616 14.49569326883830"}}, "geometry": {"type": "Point", "coordinates": [-134.3411108074942, 26.91905243829565]}}, {"type": "Feature", "properties": {"norad_id": 34071, "name": "IRIDIUM 33 DEB", "group": "iridium-33-debris", "lat": -41.05935317800526, "lon": -157.49411203383974, "alt_km": 735.8850577832955, "timestamp": "2025-12-09T07:41:33.595528+00:00", "meta": {"OBJECT_NAME": "IRIDIUM 33 DEB", "OBJECT_ID": "1997-051CE", "EPOCH": "2025-12-08T20:44:07.776960", "MEAN_MOTION": 14.49437096, "ECCENTRICITY": 0.0009809, "INCLINATION": 86.3456, "RA_OF_ASC_NODE": 19.5128, "ARG_OF_PERICENTER": 117.9663, "MEAN_ANOMALY": 242.2535, "EPHEMERIS_TYPE": 0, "CLASSIFICATION_TYPE": "U", "NORAD_CAT_ID": 34071, "ELEMENT_SET_NO": 999, "REV_AT_EPOCH": 88278, "BSTAR": 0.00076109809, "MEAN_MOTION_DOT": 2.933e-05, "MEAN_MOTION_DDOT": 0}, "tle": {"line1": "1 34071U 97051CE  25342.86397890  .00002933  00000+0  76110-3 0  9997", "line2": "2 34071  86.3456  19.5128 0009809 117.9663 242.2535 14.49437096882787"}}, "geometry": {"type": "Point", "coordinates": [-157.49411203383974, -41.05935317800526]}}]}